METHANESAT              
1 59101U 24043D   25295.09031521  .00005495  00000+0  49096-3 0  9996
2 59101  97.8166  60.7153 0011888  87.3412 272.9170 14.96268098 89028
GOSAT-GW (IBUKI GW)     
1 64694U 25141A   25295.16945669  .00001481  00000+0  26928-3 0  9994
2 64694  98.0340 231.6384 0001446  81.7869 278.3500 14.67573033 16939
GHGSAT-C1               
1 46278U 20061G   25295.17518869  .00029497  00000+0  42921-3 0  9995
2 46278  97.2380  10.0496 0002169 162.9259 197.2069 15.55709413286291
GHGSAT-C12              
1 64529U 25135B   25295.22255028  .00005838  00000+0  29012-3 0  9991
2 64529  97.4589  47.8075 0003842 285.7674  74.3136 15.18031617 18698
GHGSAT-C13              
1 64548U 25135W   25295.21051947  .00005728  00000+0  27785-3 0  9998
2 64548  97.4614  48.0118 0001144 151.9768 208.1528 15.18887279 18707
GHGSAT-C2               
1 47509U 21006DA  25295.12317650  .00009122  00000+0  27848-3 0  9997
2 47509  97.2525 341.5058 0004247 316.2818  43.8088 15.34121277263307
GHGSAT-C3               
1 52737U 22057F   25295.17312568  .00010525  00000+0  36178-3 0  9996
2 52737  97.6303  68.1125 0005629 238.7319 121.3370 15.30277378189088
GHGSAT-C4               
1 52746U 22057Q   25295.19191145  .00010857  00000+0  37318-3 0  9999
2 52746  97.6231  67.2014 0006089 222.7860 137.2907 15.30268948189096
GHGSAT-C5               
1 52744U 22057N   25295.14338352  .00010427  00000+0  35862-3 0  9990
2 52744  97.6390  69.3789 0006678 235.8278 124.2329 15.30256661189086
GHGSAT-C6               
1 56204U 23054AC  25295.22231086  .00016697  00000+0  35591-3 0  9992
2 56204  97.3173 196.9957 0008678 171.3477 188.7923 15.44947412141616
GHGSAT-C7               
1 56209U 23054AH  25295.22641759  .00013746  00000+0  30593-3 0  9998
2 56209  97.3132 196.3676 0008823 166.6547 193.4936 15.43709943141605
GHGSAT-C8               
1 56186U 23054J   25295.19615764  .00017232  00000+0  36725-3 0  9992
2 56186  97.3139 196.4182 0005317 183.6913 176.4298 15.44969630141592
SENTINEL-5P             
1 42969U 17064A   25295.10018288  .00000157  00000+0  95523-4 0  9999
2 42969  98.7694 234.1649 0001052  93.6683 266.4613 14.19561238415780
ENMAP                   
1 52159U 22033C   25295.18574661  .00000966  00000+0  15129-3 0  9994
2 52159  97.9775  15.8439 0001163  78.2478 281.8861 14.74950806191576
PRISMA                  
1 44072U 19015A   25295.20610211  .00001671  00000+0  20879-3 0  9992
2 44072  97.8751   8.3912 0001108 107.6131 252.5204 14.83671658356764
SENTINEL-2A             
1 40697U 15028A   25295.17272630  .00000249  00000+0  11165-3 0  9994
2 40697  98.5676   8.4291 0001135  93.1322 266.9991 14.30814462539690
SENTINEL-2B             
1 42063U 17013A   25295.16555285  .00000254  00000+0  11348-3 0  9997
2 42063  98.5678   8.3583 0000962  96.1761 263.9531 14.30818808450609
SENTINEL-2C             
1 60989U 24157A   25295.20066066  .00000250  00000+0  11203-3 0  9996
2 60989  98.5655   8.4518 0000958  93.1489 266.9803 14.30813927 58953
LANDSAT 8               
1 39084U 13008A   25295.15419772  .00000705  00000+0  16655-3 0  9992
2 39084  98.2131   3.9729 0001221  92.3825 267.7513 14.57125047663232
LANDSAT 9               
1 49260U 21088A   25295.18863169  .00000784  00000+0  18397-3 0  9994
2 49260  98.2153   4.0306 0001268  87.9367 272.1976 14.57120708216346
